ONEWEB-0113             
1 48050U 21025J   22297.30752030  .00000659  00000+0  17709-2 0  9994
2 48050  87.9038 224.8485 0001945  65.0183 295.1148 13.13464467 78744
ONEWEB-0112             
1 48051U 21025K   22297.37098328 -.00000233  00000+0 -67354-3 0  9997
2 48051  87.9147 224.7948 0001848  73.8010 286.3322 13.13472388 78766
ONEWEB-0156             
1 48052U 21025L   22297.76244362 -.00000563  00000+0 -15758-2 0  9998
2 48052  87.9042 224.7407 0001858  74.7982 285.3352 13.13469412 78801
ONEWEB-0161             
1 48053U 21025M   22297.35405518 -.00000014  00000+0 -74284-4 0  9998
2 48053  87.9045 224.8033 0001781  81.8574 278.2757 13.13467122 78673
ONEWEB-0158             
1 48054U 21025N   22297.31809769  .00000332  00000+0  87499-3 0  9993
2 48054  87.9044 224.8355 0001580  66.7679 293.3617 13.13467581 78790
ONEWEB-0157             
1 48055U 21025P   22297.34136363  .00000314  00000+0  82498-3 0  9994
2 48055  87.9069 224.7762 0002070  80.1164 280.0199 13.13465855 78737
ONEWEB-0162             
1 48056U 21025Q   22297.53179498 -.00000608  00000+0 -17004-2 0  9990
2 48056  87.9038 224.7674 0001881  73.4703 286.6632 13.13469494 78714
ONEWEB-0155             
1 48057U 21025R   22297.78151828  .00000166  00000+0  41841-3 0  9999
2 48057  87.9123 224.6631 0001789  78.1062 282.0268 13.13471496 78911
ONEWEB-0149             
1 48058U 21025S   22297.34561783  .00001606  00000+0  43615-2 0  9997
2 48058  87.9038 224.8057 0002512  68.8244 291.3153 13.13462381 78654
ONEWEB-0148             
1 48059U 21025T   22297.30962847  .00000055  00000+0  11508-3 0  9994
2 48059  87.9041 224.8160 0002713  74.7949 285.3480 13.13471209 78773
ONEWEB-0160             
1 48060U 21025U   22297.32656523  .00000332  00000+0  87412-3 0  9994
2 48060  87.9040 224.8118 0001353  33.2065 326.9149 13.13470608 78726
ONEWEB-0163             
1 48061U 21025V   22297.31174224  .00000115  00000+0  27885-3 0  9994
2 48061  87.8975 224.8580 0002099  87.5656 272.5713 13.13468912 78843
ONEWEB-0159             
1 48062U 21025W   22297.75823102 -.00000251  00000+0 -72162-3 0  9990
2 48062  87.9045 224.7287 0002281  83.0569 277.0820 13.13468335 78829
ONEWEB-0164             
1 48063U 21025X   22297.73919167 -.00000124  00000+0 -37529-3 0  9993
2 48063  87.8955 224.7883 0001517  81.9040 278.2261 13.13467934 78818
ONEWEB-0167             
1 48064U 21025Y   22297.31384093 -.00000305  00000+0 -87032-3 0  9997
2 48064  87.9068 224.7825 0002060  83.2947 276.8416 13.13469205 78736
ONEWEB-0166             
1 48065U 21025Z   22297.33502545  .00000412  00000+0  10926-2 0  9998
2 48065  87.9141 224.7973 0002099  77.3683 282.7681 13.13471318 78813
ONEWEB-0151             
1 48066U 21025AA  22297.71802642  .00000302  00000+0  79122-3 0  9994
2 48066  87.9042 224.7309 0001508  80.5491 279.5808 13.13467986 78815
ONEWEB-0170             
1 48067U 21025AB  22297.34348704  .00000282  00000+0  73611-3 0  9992
2 48067  87.8979 224.8627 0000883  68.8413 291.2811 13.13471738 78710
ONEWEB-0168             
1 48068U 21025AC  22297.78574040  .00000243  00000+0  63005-3 0  9998
2 48068  87.9045 224.7473 0001961  76.8056 283.3292 13.13472100 78780
ONEWEB-0173             
1 48069U 21025AD  22297.32232597  .00000322  00000+0  84807-3 0  9998
2 48069  87.9043 224.8500 0001840  94.8394 265.2945 13.13468247 78963
ONEWEB-0171             
1 48070U 21025AE  22297.35617323 -.00000118  00000+0 -35813-3 0  9995
2 48070  87.9046 224.8016 0002049  76.7376 283.3982 13.13471856 78783
ONEWEB-0172             
1 48071U 21025AF  22297.71907590  .00000316  00000+0  82920-3 0  9993
2 48071  87.9004 224.7700 0001670  87.2280 272.9040 13.13466308 79727
ONEWEB-0174             
1 48072U 21025AG  22297.32019958  .00000322  00000+0  84567-3 0  9999
2 48072  87.9030 224.8297 0002664  70.1026 290.0390 13.13470943 78999
ONEWEB-0175             
1 48073U 21025AH  22297.34770290  .00000332  00000+0  87489-3 0  9992
2 48073  87.9107 224.7775 0001266  80.2482 279.8790 13.13472521 78656
ONEWEB-0177             
1 48074U 21025AJ  22297.74128949 -.00000131  00000+0 -39429-3 0  9995
2 48074  87.8996 224.7671 0002232  93.7848 266.3537 13.13467034 78895
ONEWEB-0178             
1 48075U 21025AK  22297.30223133 -.00000161  00000+0 -47451-3 0  9996
2 48075  87.9038 224.8144 0002024  83.0046 277.1313 13.13470575 78886
ONEWEB-0108             
1 48076U 21025AL  22297.72013179  .00000324  00000+0  85230-3 0  9996
2 48076  87.9041 224.7306 0002056  65.5306 294.6037 13.13471825 78874
ONEWEB-0169             
1 48077U 21025AM  22297.36888334 -.00000265  00000+0 -76047-3 0  9992
2 48077  87.8972 224.8502 0002160  67.5868 292.5490 13.13471879 77471
ONEWEB-0176             
1 48210U 21031A   22297.26920323  .00000045  00000+0  86576-4 0  9995
2 48210  87.9042 194.5395 0001842  81.4289 278.7049 13.14500984 73338
ONEWEB-0184             
1 48211U 21031B   22297.24382424  .00000323  00000+0  83713-3 0  9996
2 48211  87.9138 194.4808 0000812 124.5712 235.5495 13.14506268 73303
ONEWEB-0179             
1 48212U 21031C   22297.44046261 -.00000218  00000+0 -62184-3 0  9999
2 48212  87.9135 194.4420 0001955  82.2330 277.9022 13.14506757 73372
ONEWEB-0180             
1 48213U 21031D   22297.62651668  .00000226  00000+0  57499-3 0  9993
2 48213  87.9138 194.4006 0001930  79.4266 280.7081 13.14506187 73289
ONEWEB-0218             
1 48214U 21031E   22297.26708176  .00000034  00000+0  57678-4 0  9998
2 48214  87.9231 194.4705 0001341 129.4560 230.6688 13.14500822 73398
ONEWEB-0209             
1 48215U 21031F   22297.25652938  .00000274  00000+0  70345-3 0  9993
2 48215  87.9140 194.5136 0001846  80.4033 279.7305 13.14502938 73398
ONEWEB-0198             
1 48216U 21031G   22297.24188436 -.00022723  00000+0 -61633-1 0  9993
2 48216  87.9137 194.5292 0001725  45.8117 314.3154 13.14329099 73508
ONEWEB-0189             
1 48217U 21031H   22297.25441967  .00000330  00000+0  85673-3 0  9996
2 48217  87.9231 194.5014 0001766  98.0100 262.1230 13.14504001 73247
ONEWEB-0196             
1 48218U 21031J   22297.23325435  .00000172  00000+0  42913-3 0  9990
2 48218  87.9136 194.5011 0001571  80.2546 279.8761 13.14506218 73246
ONEWEB-0183             
1 48219U 21031K   22297.28189932 -.00000169  00000+0 -48964-3 0  9996
2 48219  87.9140 194.5109 0001877  75.7358 284.3980 13.14501592 73344
ONEWEB-0185             
1 48220U 21031L   22297.23434597  .00000226  00000+0  57531-3 0  9995
2 48220  87.9136 194.4981 0001863  78.4069 281.7270 13.14503600 73268
ONEWEB-0187             
1 48221U 21031M   22297.43727116 -.00006570  00000+0 -17758-1 0  9995
2 48221  87.9147 194.4808 0001735  71.7032 288.4286 13.14538060 73307
ONEWEB-0192             
1 48222U 21031N   22297.25862050  .00000219  00000+0  55612-3 0  9998
2 48222  87.9139 194.4638 0001532  83.0315 277.0989 13.14505144 73193
ONEWEB-0219             
1 48223U 21031P   22297.23960214 -.00000035  00000+0 -12883-3 0  9999
2 48223  87.9220 194.4937 0001931  79.3019 280.8328 13.14507025 73390
ONEWEB-0202             
1 48224U 21031Q   22297.21845846  .00000002  00000+0 -29655-4 0  9990
2 48224  87.9136 194.5276 0001636 120.2809 239.8483 13.14502770 73375
ONEWEB-0204             
1 48225U 21031R   22297.27873202 -.00000076  00000+0 -23848-3 0  9993
2 48225  87.9137 194.5415 0001916  54.4109 305.7199 13.14500906 73279
ONEWEB-0205             
1 48226U 21031S   22297.15290721  .00000045  00000+0  87419-4 0  9999
2 48226  87.9137 194.5189 0001782  89.3225 270.8108 13.14505629 73285
ONEWEB-0206             
1 48227U 21031T   22297.65826588 -.00000115  00000+0 -34516-3 0  9990
2 48227  87.9222 194.3943 0002050  77.1743 282.9615 13.14503982 73306
ONEWEB-0182             
1 48228U 21031U   22297.27131484 -.00000032  00000+0 -11990-3 0  9992
2 48228  87.9140 194.5558 0001999  79.9829 280.1526 13.14502552 73455
ONEWEB-0186             
1 48229U 21031V   22297.43624795 -.00000117  00000+0 -34893-3 0  9994
2 48229  87.9139 194.4353 0001802  83.4145 276.7190 13.14503664 73420
ONEWEB-0181             
1 48230U 21031W   22297.26074348  .00000193  00000+0  48663-3 0  9992
2 48230  87.9141 194.5380 0001630  81.2924 278.8390 13.14500117 73252
ONEWEB-0188             
1 48231U 21031X   22297.45314970 -.00000091  00000+0 -27885-3 0  9994
2 48231  87.9138 194.5018 0001886  79.5967 280.5376 13.14505199 73188
ONEWEB-0220             
1 48232U 21031Y   22297.71957055 -.00000096  00000+0 -29437-3 0  9991
2 48232  87.9223 194.3946 0002117  80.7467 279.3903 13.14505014 73480
ONEWEB-0165             
1 48233U 21031Z   22297.44470354 -.00000182  00000+0 -52405-3 0  9991
2 48233  87.9138 194.4853 0001871  84.4704 275.6639 13.14503310 73409
ONEWEB-0199             
1 48234U 21031AA  22297.73226132 -.00000081  00000+0 -25407-3 0  9997
2 48234  87.9138 194.4045 0001800  81.2253 278.9081 13.14504215 73344
ONEWEB-0203             
1 48235U 21031AB  22297.72168225  .00000117  00000+0  28050-3 0  9990
2 48235  87.9139 194.4018 0001152  75.6531 284.4727 13.14503605 73354
ONEWEB-0197             
1 48236U 21031AC  22297.17617377  .00000257  00000+0  65867-3 0  9999
2 48236  87.9137 194.5192 0001717  80.6396 279.4928 13.14500923 73198
ONEWEB-0194             
1 48237U 21031AD  22297.67726174 -.00005424  00000+0 -14669-1 0  9996
2 48237  87.9138 194.4101 0001977  54.8131 305.3184 13.14525984 73431
ONEWEB-0193             
1 48238U 21031AE  22297.46583542  .00000193  00000+0  48485-3 0  9995
2 48238  87.9135 194.4629 0001494  83.2304 276.8995 13.14505978 73350
ONEWEB-0191             
1 48239U 21031AF  22297.70477145  .00000182  00000+0  45622-3 0  9992
2 48239  87.9135 194.3976 0001512  74.7919 285.3378 13.14504781 73242
ONEWEB-0195             
1 48240U 21031AG  22297.45420169 -.00000086  00000+0 -26705-3 0  9996
2 48240  87.9138 194.4397 0001724  96.5125 263.6201 13.14505401 73199
